SPACEBEE-7              
1 43816U 18099BL  24360.13876767  .00036599  00000+0  15415-2 0  9998
2 43816  97.5232  62.6688 0007506 350.8485   9.2614 15.23230745331358
SPACEBEE-6              
1 43818U 18099BN  24360.15803000  .00581535  00000+0  34537-2 0  9993
2 43818  97.5033  74.5629 0006897 297.2546  62.8016 15.76395987332293
